QIANFAN-33              
1 61566U 24185Q   26194.25975403  .00000183  00000+0  12190-3 0  9998
2 61566  88.9795  55.1161 0008843  36.0838 324.0934 13.96719019 98820
QIANFAN-34              
1 61567U 24185R   26194.28041704  .00000117  00000+0  67072-4 0  9997
2 61567  88.9773  54.3961 0007049  34.9491 325.2151 14.02483450 99140
QIANFAN-35              
1 61568U 24185S   26194.27603626  .00000360  00000+0  13851-3 0  9999
2 61568  88.9799  51.9346 0004826 326.7913  33.2978 14.28296586100517
QIANFAN-36              
1 61569U 24185T   26194.24412208  .00000050  00000+0  55010-4 0  9991
2 61569  88.9773  58.9019 0007467 131.7941 228.3852 13.55639765 96716
QIANFAN-37              
1 62238U 24232B   26194.25774851  .00000051  00000+0  61110-4 0  9993
2 62238  89.0065  19.9653 0001934 107.8025 252.3338 13.51011126127865
QIANFAN-38              
1 62239U 24232C   26194.28244181  .00000048  00000+0  55579-4 0  9993
2 62239  89.0072  19.8930 0012793 306.1645  53.8322 13.51007752127922
QIANFAN-39              
1 62240U 24232D   26194.26220861  .00000092  00000+0  32752-4 0  9999
2 62240  89.0060  13.0956 0018491 101.1788 259.1485 14.25532098131662
QIANFAN-40              
1 62241U 24232E   26194.24125430  .00000045  00000+0  51450-4 0  9998
2 62241  89.0099  19.5409 0012043 315.8178  44.2010 13.51009304128281
QIANFAN-41              
1 62242U 24232F   26194.24947589  .00000045  00000+0  50654-4 0  9991
2 62242  89.0070  19.8439 0012132 302.1145  57.8828 13.51012096127940
QIANFAN-42              
1 62243U 24232G   26194.25515924  .00000087  00000+0  30969-4 0  9990
2 62243  89.0058  13.1750 0017274 106.9948 253.3140 14.24620602131622
QIANFAN-43              
1 62244U 24232H   26194.24535583  .00000038  00000+0  40708-4 0  9991
2 62244  89.0075  19.9190 0013786 307.5176  52.4722 13.51011540 96550
QIANFAN-44              
1 62245U 24232J   26194.23296073  .00000032  00000+0  30897-4 0  9991
2 62245  89.0073  19.7275 0011937 304.8262  55.1765 13.51013454128024
QIANFAN-45              
1 62246U 24232K   26194.27419640  .00000033  00000+0  32143-4 0  9990
2 62246  89.0076  19.8775 0012589 304.0027  55.9928 13.51010897127957
QIANFAN-46              
1 62247U 24232L   26194.22478943  .00000030  00000+0  28809-4 0  9998
2 62247  89.0072  19.9428 0012771 310.3949  49.6086 13.51011573127908
QIANFAN-47              
1 62248U 24232M   26194.22891863  .00000039  00000+0  42174-4 0  9999
2 62248  89.0068  19.8668 0013173 309.2700  50.7282 13.51011014127932
QIANFAN-48              
1 62249U 24232N   26194.26580917  .00000037  00000+0  38686-4 0  9990
2 62249  89.0072  19.8731 0015481 311.2402  48.7415 13.51015642127942
