{"fetched_at":"2026-07-13T18:16:35.050Z","source":"https://celestrak.org/NORAD/elements/gp.php?GROUP=qianfan&FORMAT=JSON","constellation":"qianfan","records":[{"OBJECT_NAME":"QIANFAN-33","OBJECT_ID":"2024-185Q","EPOCH":"2026-07-13T06:14:02.748192","CLASSIFICATION_TYPE":"U","MEAN_MOTION":13.96719019,"ECCENTRICITY":0.00088437,"INCLINATION":88.9795,"RA_OF_ASC_NODE":55.1161,"ARG_OF_PERICENTER":36.0838,"MEAN_ANOMALY":324.0934,"EPHEMERIS_TYPE":0,"NORAD_CAT_ID":61566,"ELEMENT_SET_NO":999,"REV_AT_EPOCH":9882,"BSTAR":0.00012189778,"MEAN_MOTION_DOT":0.00000183,"MEAN_MOTION_DDOT":0},{"OBJECT_NAME":"QIANFAN-34","OBJECT_ID":"2024-185R","EPOCH":"2026-07-13T06:43:48.032256","CLASSIFICATION_TYPE":"U","MEAN_MOTION":14.0248345,"ECCENTRICITY":0.00070497,"INCLINATION":88.9773,"RA_OF_ASC_NODE":54.3961,"ARG_OF_PERICENTER":34.9491,"MEAN_ANOMALY":325.2151,"EPHEMERIS_TYPE":0,"NORAD_CAT_ID":61567,"ELEMENT_SET_NO":999,"REV_AT_EPOCH":9914,"BSTAR":0.000067072112,"MEAN_MOTION_DOT":0.00000117,"MEAN_MOTION_DDOT":0},{"OBJECT_NAME":"QIANFAN-35","OBJECT_ID":"2024-185S","EPOCH":"2026-07-13T06:37:29.532864","CLASSIFICATION_TYPE":"U","MEAN_MOTION":14.28296586,"ECCENTRICITY":0.00048261,"INCLINATION":88.9799,"RA_OF_ASC_NODE":51.9346,"ARG_OF_PERICENTER":326.7913,"MEAN_ANOMALY":33.2978,"EPHEMERIS_TYPE":0,"NORAD_CAT_ID":61568,"ELEMENT_SET_NO":999,"REV_AT_EPOCH":10051,"BSTAR":0.00013850958,"MEAN_MOTION_DOT":0.0000036,"MEAN_MOTION_DDOT":0},{"OBJECT_NAME":"QIANFAN-36","OBJECT_ID":"2024-185T","EPOCH":"2026-07-13T05:51:32.147712","CLASSIFICATION_TYPE":"U","MEAN_MOTION":13.55639765,"ECCENTRICITY":0.00074678,"INCLINATION":88.9773,"RA_OF_ASC_NODE":58.9019,"ARG_OF_PERICENTER":131.7941,"MEAN_ANOMALY":228.3852,"EPHEMERIS_TYPE":0,"NORAD_CAT_ID":61569,"ELEMENT_SET_NO":999,"REV_AT_EPOCH":9671,"BSTAR":0.00005500992,"MEAN_MOTION_DOT":5e-7,"MEAN_MOTION_DDOT":0},{"OBJECT_NAME":"QIANFAN-37","OBJECT_ID":"2024-232B","EPOCH":"2026-07-13T06:11:09.471264","CLASSIFICATION_TYPE":"U","MEAN_MOTION":13.51011126,"ECCENTRICITY":0.00019348,"INCLINATION":89.0065,"RA_OF_ASC_NODE":19.9653,"ARG_OF_PERICENTER":107.8025,"MEAN_ANOMALY":252.3338,"EPHEMERIS_TYPE":0,"NORAD_CAT_ID":62238,"ELEMENT_SET_NO":999,"REV_AT_EPOCH":12786,"BSTAR":0.000061109744,"MEAN_MOTION_DOT":5.1e-7,"MEAN_MOTION_DDOT":0},{"OBJECT_NAME":"QIANFAN-38","OBJECT_ID":"2024-232C","EPOCH":"2026-07-13T06:46:42.972384","CLASSIFICATION_TYPE":"U","MEAN_MOTION":13.51007752,"ECCENTRICITY":0.00127931,"INCLINATION":89.0072,"RA_OF_ASC_NODE":19.893,"ARG_OF_PERICENTER":306.1645,"MEAN_ANOMALY":53.8322,"EPHEMERIS_TYPE":0,"NORAD_CAT_ID":62239,"ELEMENT_SET_NO":999,"REV_AT_EPOCH":12792,"BSTAR":0.000055579261,"MEAN_MOTION_DOT":4.8e-7,"MEAN_MOTION_DDOT":0},{"OBJECT_NAME":"QIANFAN-39","OBJECT_ID":"2024-232D","EPOCH":"2026-07-13T06:17:34.823904","CLASSIFICATION_TYPE":"U","MEAN_MOTION":14.25532098,"ECCENTRICITY":0.00184916,"INCLINATION":89.006,"RA_OF_ASC_NODE":13.0956,"ARG_OF_PERICENTER":101.1788,"MEAN_ANOMALY":259.1485,"EPHEMERIS_TYPE":0,"NORAD_CAT_ID":62240,"ELEMENT_SET_NO":999,"REV_AT_EPOCH":13166,"BSTAR":0.000032751681,"MEAN_MOTION_DOT":9.2e-7,"MEAN_MOTION_DDOT":0},{"OBJECT_NAME":"QIANFAN-40","OBJECT_ID":"2024-232E","EPOCH":"2026-07-13T05:47:24.371520","CLASSIFICATION_TYPE":"U","MEAN_MOTION":13.51009304,"ECCENTRICITY":0.0012043,"INCLINATION":89.0099,"RA_OF_ASC_NODE":19.5409,"ARG_OF_PERICENTER":315.8178,"MEAN_ANOMALY":44.201,"EPHEMERIS_TYPE":0,"NORAD_CAT_ID":62241,"ELEMENT_SET_NO":999,"REV_AT_EPOCH":12828,"BSTAR":0.000051449552,"MEAN_MOTION_DOT":4.5e-7,"MEAN_MOTION_DDOT":0},{"OBJECT_NAME":"QIANFAN-41","OBJECT_ID":"2024-232F","EPOCH":"2026-07-13T05:59:14.716896","CLASSIFICATION_TYPE":"U","MEAN_MOTION":13.51012096,"ECCENTRICITY":0.00121323,"INCLINATION":89.007,"RA_OF_ASC_NODE":19.8439,"ARG_OF_PERICENTER":302.1145,"MEAN_ANOMALY":57.8828,"EPHEMERIS_TYPE":0,"NORAD_CAT_ID":62242,"ELEMENT_SET_NO":999,"REV_AT_EPOCH":12794,"BSTAR":0.000050654177,"MEAN_MOTION_DOT":4.5e-7,"MEAN_MOTION_DDOT":0},{"OBJECT_NAME":"QIANFAN-42","OBJECT_ID":"2024-232G","EPOCH":"2026-07-13T06:07:25.758336","CLASSIFICATION_TYPE":"U","MEAN_MOTION":14.24620602,"ECCENTRICITY":0.00172741,"INCLINATION":89.0058,"RA_OF_ASC_NODE":13.175,"ARG_OF_PERICENTER":106.9948,"MEAN_ANOMALY":253.314,"EPHEMERIS_TYPE":0,"NORAD_CAT_ID":62243,"ELEMENT_SET_NO":999,"REV_AT_EPOCH":13162,"BSTAR":0.000030968819,"MEAN_MOTION_DOT":8.7e-7,"MEAN_MOTION_DDOT":0},{"OBJECT_NAME":"QIANFAN-43","OBJECT_ID":"2024-232H","EPOCH":"2026-07-13T05:53:18.743712","CLASSIFICATION_TYPE":"U","MEAN_MOTION":13.5101154,"ECCENTRICITY":0.0013786,"INCLINATION":89.0075,"RA_OF_ASC_NODE":19.919,"ARG_OF_PERICENTER":307.5176,"MEAN_ANOMALY":52.4722,"EPHEMERIS_TYPE":0,"NORAD_CAT_ID":62244,"ELEMENT_SET_NO":999,"REV_AT_EPOCH":9655,"BSTAR":0.000040708385,"MEAN_MOTION_DOT":3.8e-7,"MEAN_MOTION_DDOT":0},{"OBJECT_NAME":"QIANFAN-44","OBJECT_ID":"2024-232J","EPOCH":"2026-07-13T05:35:27.807072","CLASSIFICATION_TYPE":"U","MEAN_MOTION":13.51013454,"ECCENTRICITY":0.0011937,"INCLINATION":89.0073,"RA_OF_ASC_NODE":19.7275,"ARG_OF_PERICENTER":304.8262,"MEAN_ANOMALY":55.1765,"EPHEMERIS_TYPE":0,"NORAD_CAT_ID":62245,"ELEMENT_SET_NO":999,"REV_AT_EPOCH":12802,"BSTAR":0.000030897381,"MEAN_MOTION_DOT":3.2e-7,"MEAN_MOTION_DDOT":0},{"OBJECT_NAME":"QIANFAN-45","OBJECT_ID":"2024-232K","EPOCH":"2026-07-13T06:34:50.568960","CLASSIFICATION_TYPE":"U","MEAN_MOTION":13.51010897,"ECCENTRICITY":0.00125897,"INCLINATION":89.0076,"RA_OF_ASC_NODE":19.8775,"ARG_OF_PERICENTER":304.0027,"MEAN_ANOMALY":55.9928,"EPHEMERIS_TYPE":0,"NORAD_CAT_ID":62246,"ELEMENT_SET_NO":999,"REV_AT_EPOCH":12795,"BSTAR":0.000032142625,"MEAN_MOTION_DOT":3.3e-7,"MEAN_MOTION_DDOT":0},{"OBJECT_NAME":"QIANFAN-46","OBJECT_ID":"2024-232L","EPOCH":"2026-07-13T05:23:41.806752","CLASSIFICATION_TYPE":"U","MEAN_MOTION":13.51011573,"ECCENTRICITY":0.00127714,"INCLINATION":89.0072,"RA_OF_ASC_NODE":19.9428,"ARG_OF_PERICENTER":310.3949,"MEAN_ANOMALY":49.6086,"EPHEMERIS_TYPE":0,"NORAD_CAT_ID":62247,"ELEMENT_SET_NO":999,"REV_AT_EPOCH":12790,"BSTAR":0.000028808625,"MEAN_MOTION_DOT":3e-7,"MEAN_MOTION_DDOT":0},{"OBJECT_NAME":"QIANFAN-47","OBJECT_ID":"2024-232M","EPOCH":"2026-07-13T05:29:38.569632","CLASSIFICATION_TYPE":"U","MEAN_MOTION":13.51011014,"ECCENTRICITY":0.0013173,"INCLINATION":89.0068,"RA_OF_ASC_NODE":19.8668,"ARG_OF_PERICENTER":309.27,"MEAN_ANOMALY":50.7282,"EPHEMERIS_TYPE":0,"NORAD_CAT_ID":62248,"ELEMENT_SET_NO":999,"REV_AT_EPOCH":12793,"BSTAR":0.000042174349,"MEAN_MOTION_DOT":3.9e-7,"MEAN_MOTION_DDOT":0},{"OBJECT_NAME":"QIANFAN-48","OBJECT_ID":"2024-232N","EPOCH":"2026-07-13T06:22:45.912288","CLASSIFICATION_TYPE":"U","MEAN_MOTION":13.51015642,"ECCENTRICITY":0.00154811,"INCLINATION":89.0072,"RA_OF_ASC_NODE":19.8731,"ARG_OF_PERICENTER":311.2402,"MEAN_ANOMALY":48.7415,"EPHEMERIS_TYPE":0,"NORAD_CAT_ID":62249,"ELEMENT_SET_NO":999,"REV_AT_EPOCH":12794,"BSTAR":0.000038686431,"MEAN_MOTION_DOT":3.7e-7,"MEAN_MOTION_DDOT":0}]}
